{
  "type": "FeatureCollection",
  "features": [
    {
      "type": "Feature",
      "properties": {
        "norad_id": 28890,
        "name": "BEIJING 1",
        "group": "dmc",
        "lat": -48.00326092367528,
        "lon": -64.8974663427338,
        "alt_km": 694.205267958645,
        "timestamp": "2025-12-22T20:43:45.509338+00:00",
        "meta_object_name": "BEIJING 1",
        "meta_object_id": "2005-043A",
        "meta_epoch": "2025-12-22T14:45:58.647168",
        "meta_mean_motion": 14.63375519,
        "meta_eccentricity": 0.00157698,
        "meta_inclination": 98.2663,
        "meta_ra_of_asc_node": 124.1463,
        "meta_arg_of_pericenter": 112.1425,
        "meta_mean_anomaly": 248.1452,
        "meta_ephemeris_type": 0,
        "meta_classification_type": "U",
        "meta_norad_cat_id": 28890,
        "meta_element_set_no": 999,
        "meta_rev_at_epoch": 7482,
        "meta_bstar": 0.00013349801,
        "meta_mean_motion_dot": 6.42e-06,
        "meta_mean_motion_ddot": 0,
        "tle_line1": "1 28890U 05043A   25356.61526212  .00000642  00000+0  13350-3 0  9991",
        "tle_line2": "2 28890  98.2663 124.1463 0015769 112.1425 248.1452 14.63375519 74829"
      },
      "geometry": {
        "type": "Point",
        "coordinates": [
          -64.8974663427338,
          -48.00326092367528
        ]
      }
    },
    {
      "type": "Feature",
      "properties": {
        "norad_id": 33320,
        "name": "HUANJING 1A (HJ-1A)",
        "group": "dmc",
        "lat": -80.52519636827535,
        "lon": 111.05184162824635,
        "alt_km": 627.7668823141803,
        "timestamp": "2025-12-22T20:43:45.509362+00:00",
        "meta_object_name": "HUANJING 1A (HJ-1A)",
        "meta_object_id": "2008-041A",
        "meta_epoch": "2025-12-22T14:41:00.080736",
        "meta_mean_motion": 14.83423626,
        "meta_eccentricity": 0.001944,
        "meta_inclination": 97.6541,
        "meta_ra_of_asc_node": 344.498,
        "meta_arg_of_pericenter": 3.2392,
        "meta_mean_anomaly": 356.8945,
        "meta_ephemeris_type": 0,
        "meta_classification_type": "U",
        "meta_norad_cat_id": 33320,
        "meta_element_set_no": 999,
        "meta_rev_at_epoch": 93222,
        "meta_bstar": 0.00018712343,
        "meta_mean_motion_dot": 1.49e-05,
        "meta_mean_motion_ddot": 0,
        "tle_line1": "1 33320U 08041A   25356.61180649  .00001490  00000+0  18712-3 0  9995",
        "tle_line2": "2 33320  97.6541 344.4980 0019440   3.2392 356.8945 14.83423626932221"
      },
      "geometry": {
        "type": "Point",
        "coordinates": [
          111.05184162824635,
          -80.52519636827535
        ]
      }
    },
    {
      "type": "Feature",
      "properties": {
        "norad_id": 33321,
        "name": "HUANJING 1B (HJ-1B)",
        "group": "dmc",
        "lat": 73.06923844929851,
        "lon": -165.42645429672675,
        "alt_km": 600.6106632923702,
        "timestamp": "2025-12-22T20:43:45.509376+00:00",
        "meta_object_name": "HUANJING 1B (HJ-1B)",
        "meta_object_id": "2008-041B",
        "meta_epoch": "2025-12-22T13:46:55.193952",
        "meta_mean_motion": 14.82843274,
        "meta_eccentricity": 0.00379463,
        "meta_inclination": 97.6398,
        "meta_ra_of_asc_node": 348.1331,
        "meta_arg_of_pericenter": 44.5736,
        "meta_mean_anomaly": 315.8519,
        "meta_ephemeris_type": 0,
        "meta_classification_type": "U",
        "meta_norad_cat_id": 33321,
        "meta_element_set_no": 999,
        "meta_rev_at_epoch": 93223,
        "meta_bstar": 6.8120857e-05,
        "meta_mean_motion_dot": 5.06e-06,
        "meta_mean_motion_ddot": 0,
        "tle_line1": "1 33321U 08041B   25356.57424993  .00000506  00000+0  68121-4 0  9991",
        "tle_line2": "2 33321  97.6398 348.1331 0037946  44.5736 315.8519 14.82843274932231"
      },
      "geometry": {
        "type": "Point",
        "coordinates": [
          -165.42645429672675,
          73.06923844929851
        ]
      }
    },
    {
      "type": "Feature",
      "properties": {
        "norad_id": 33446,
        "name": "YAOGAN-4",
        "group": "dmc",
        "lat": 11.540368296739842,
        "lon": -74.76458822289453,
        "alt_km": 621.225072495642,
        "timestamp": "2025-12-22T20:43:45.509388+00:00",
        "meta_object_name": "YAOGAN-4",
        "meta_object_id": "2008-061A",
        "meta_epoch": "2025-12-22T07:43:11.170848",
        "meta_mean_motion": 14.8270923,
        "meta_eccentricity": 0.00130547,
        "meta_inclination": 97.9196,
        "meta_ra_of_asc_node": 286.3274,
        "meta_arg_of_pericenter": 289.4771,
        "meta_mean_anomaly": 70.5032,
        "meta_ephemeris_type": 0,
        "meta_classification_type": "U",
        "meta_norad_cat_id": 33446,
        "meta_element_set_no": 999,
        "meta_rev_at_epoch": 91945,
        "meta_bstar": 0.00016579598,
        "meta_mean_motion_dot": 1.286e-05,
        "meta_mean_motion_ddot": 0,
        "tle_line1": "1 33446U 08061A   25356.32165707  .00001286  00000+0  16580-3 0  9996",
        "tle_line2": "2 33446  97.9196 286.3274 0013054 289.4771  70.5032 14.82709230919457"
      },
      "geometry": {
        "type": "Point",
        "coordinates": [
          -74.76458822289453,
          11.540368296739842
        ]
      }
    },
    {
      "type": "Feature",
      "properties": {
        "norad_id": 35681,
        "name": "DEIMOS-1",
        "group": "dmc",
        "lat": -39.36413995381259,
        "lon": -29.3893502504327,
        "alt_km": 653.3985180159461,
        "timestamp": "2025-12-22T20:43:45.509399+00:00",
        "meta_object_name": "DEIMOS-1",
        "meta_object_id": "2009-041A",
        "meta_epoch": "2025-12-22T13:13:25.798656",
        "meta_mean_motion": 14.74966388,
        "meta_eccentricity": 0.00025403,
        "meta_inclination": 97.7149,
        "meta_ra_of_asc_node": 156.6976,
        "meta_arg_of_pericenter": 64.3499,
        "meta_mean_anomaly": 295.7973,
        "meta_ephemeris_type": 0,
        "meta_classification_type": "U",
        "meta_norad_cat_id": 35681,
        "meta_element_set_no": 999,
        "meta_rev_at_epoch": 88084,
        "meta_bstar": 0.00010938921,
        "meta_mean_motion_dot": 6.88e-06,
        "meta_mean_motion_ddot": 0,
        "tle_line1": "1 35681U 09041A   25356.55099304  .00000688  00000+0  10939-3 0  9999",
        "tle_line2": "2 35681  97.7149 156.6976 0002540  64.3499 295.7973 14.74966388880844"
      },
      "geometry": {
        "type": "Point",
        "coordinates": [
          -29.3893502504327,
          -39.36413995381259
        ]
      }
    },
    {
      "type": "Feature",
      "properties": {
        "norad_id": 35683,
        "name": "UK-DMC 2",
        "group": "dmc",
        "lat": -76.80333711957937,
        "lon": -84.59686346006008,
        "alt_km": 651.511795729195,
        "timestamp": "2025-12-22T20:43:45.509410+00:00",
        "meta_object_name": "UK-DMC 2",
        "meta_object_id": "2009-041C",
        "meta_epoch": "2025-12-22T14:40:31.372608",
        "meta_mean_motion": 14.75641387,
        "meta_eccentricity": 0.00015479,
        "meta_inclination": 97.8568,
        "meta_ra_of_asc_node": 131.236,
        "meta_arg_of_pericenter": 92.4179,
        "meta_mean_anomaly": 267.7208,
        "meta_ephemeris_type": 0,
        "meta_classification_type": "U",
        "meta_norad_cat_id": 35683,
        "meta_element_set_no": 999,
        "meta_rev_at_epoch": 88052,
        "meta_bstar": 0.00016617131,
        "meta_mean_motion_dot": 1.085e-05,
        "meta_mean_motion_ddot": 0,
        "tle_line1": "1 35683U 09041C   25356.61147422  .00001085  00000+0  16617-3 0  9994",
        "tle_line2": "2 35683  97.8568 131.2360 0001547  92.4179 267.7208 14.75641387880526"
      },
      "geometry": {
        "type": "Point",
        "coordinates": [
          -84.59686346006008,
          -76.80333711957937
        ]
      }
    },
    {
      "type": "Feature",
      "properties": {
        "norad_id": 40715,
        "name": "DMC3-FM1",
        "group": "dmc",
        "lat": -53.92524870311719,
        "lon": -125.65538203136948,
        "alt_km": 616.6164469491941,
        "timestamp": "2025-12-22T20:43:45.509421+00:00",
        "meta_object_name": "DMC3-FM1",
        "meta_object_id": "2015-032A",
        "meta_epoch": "2025-12-22T14:30:29.313216",
        "meta_mean_motion": 14.85457527,
        "meta_eccentricity": 0.00040598,
        "meta_inclination": 97.6686,
        "meta_ra_of_asc_node": 223.4371,
        "meta_arg_of_pericenter": 280.8122,
        "meta_mean_anomaly": 79.2636,
        "meta_ephemeris_type": 0,
        "meta_classification_type": "U",
        "meta_norad_cat_id": 40715,
        "meta_element_set_no": 999,
        "meta_rev_at_epoch": 56369,
        "meta_bstar": 0.00013148348,
        "meta_mean_motion_dot": 1.082e-05,
        "meta_mean_motion_ddot": 0,
        "tle_line1": "1 40715U 15032A   25356.60450594  .00001082  00000+0  13148-3 0  9992",
        "tle_line2": "2 40715  97.6686 223.4371 0004059 280.8122  79.2636 14.85457527563694"
      },
      "geometry": {
        "type": "Point",
        "coordinates": [
          -125.65538203136948,
          -53.92524870311719
        ]
      }
    },
    {
      "type": "Feature",
      "properties": {
        "norad_id": 40716,
        "name": "DMC3-FM2",
        "group": "dmc",
        "lat": -5.271033171226844,
        "lon": 44.42510604260659,
        "alt_km": 616.5112535980843,
        "timestamp": "2025-12-22T20:43:45.509431+00:00",
        "meta_object_name": "DMC3-FM2",
        "meta_object_id": "2015-032B",
        "meta_epoch": "2025-12-22T15:02:51.872928",
        "meta_mean_motion": 14.85456531,
        "meta_eccentricity": 0.00046762,
        "meta_inclination": 97.6744,
        "meta_ra_of_asc_node": 224.9097,
        "meta_arg_of_pericenter": 287.6822,
        "meta_mean_anomaly": 72.3883,
        "meta_ephemeris_type": 0,
        "meta_classification_type": "U",
        "meta_norad_cat_id": 40716,
        "meta_element_set_no": 999,
        "meta_rev_at_epoch": 56369,
        "meta_bstar": 2.3165723e-05,
        "meta_mean_motion_dot": 1.48e-06,
        "meta_mean_motion_ddot": 0,
        "tle_line1": "1 40716U 15032B   25356.62698927  .00000148  00000+0  23166-4 0  9993",
        "tle_line2": "2 40716  97.6744 224.9097 0004676 287.6822  72.3883 14.85456531563690"
      },
      "geometry": {
        "type": "Point",
        "coordinates": [
          44.42510604260659,
          -5.271033171226844
        ]
      }
    },
    {
      "type": "Feature",
      "properties": {
        "norad_id": 40717,
        "name": "DMC3-FM3",
        "group": "dmc",
        "lat": 67.88736576164305,
        "lon": -152.61840770067346,
        "alt_km": 607.8371016969886,
        "timestamp": "2025-12-22T20:43:45.509441+00:00",
        "meta_object_name": "DMC3-FM3",
        "meta_object_id": "2015-032C",
        "meta_epoch": "2025-12-22T13:57:07.669728",
        "meta_mean_motion": 14.85440849,
        "meta_eccentricity": 0.00040749,
        "meta_inclination": 97.6797,
        "meta_ra_of_asc_node": 226.5053,
        "meta_arg_of_pericenter": 288.6242,
        "meta_mean_anomaly": 71.4531,
        "meta_ephemeris_type": 0,
        "meta_classification_type": "U",
        "meta_norad_cat_id": 40717,
        "meta_element_set_no": 999,
        "meta_rev_at_epoch": 56369,
        "meta_bstar": 1.1138273e-05,
        "meta_mean_motion_dot": 4.4e-07,
        "meta_mean_motion_ddot": 0,
        "tle_line1": "1 40717U 15032C   25356.58133877  .00000044  00000+0  11138-4 0  9998",
        "tle_line2": "2 40717  97.6797 226.5053 0004074 288.6242  71.4531 14.85440849563693"
      },
      "geometry": {
        "type": "Point",
        "coordinates": [
          -152.61840770067346,
          67.88736576164305
        ]
      }
    }
  ]
}